149P/Mueller,e,34.2354,143.7580,30.2327,4.130054,0.1174277,0.32444831,295.2402,06/13.0/2025,2000,g  8.0,8.0
# From MPEC 2024-NE4
150P/LONEOS,e,18.5484,272.0557,246.1239,3.871931,0.1293637,0.54921651,59.1803,06/13.0/2025,2000,g 13.5,4.0
# From MPEC 2022-K19
151P/Helin,e,4.7254,143.1228,216.1556,5.766428,0.0711777,0.57254607,251.3167,06/13.0/2025,2000,g 10.0,6.0
# From MPC182888
152P/Helin-Lawrence,e,9.8798,91.7754,164.4430,4.485857,0.1037375,0.30685782,129.3254,06/13.0/2025,2000,g 11.5,4.0
# From MPC 46101
153P/Ikeya-Zhang,e,28.4982,93.8012,34.2214,50.48161,0.0027479,0.99015980,0.0000,03/12.3709/2002,2000,g  9.0,4.0
# From MPC184418
154P/Brewington,e,17.6382,342.9956,47.9307,4.795595,0.0938513,0.67627332,34.2357,06/13.0/2025,2000,g  2.5,12.0
# From MPEC 2022-YN2
155P/Shoemaker,e,6.4107,97.1568,14.5312,6.571890,0.0585017,0.72767082,119.0282,06/13.0/2025,2000,g 10.0,4.8
# From MPEC 2023-J29
156P/Russell-LINEAR,e,17.2609,35.3343,0.5260,3.462657,0.1529642,0.61486701,254.9920,06/13.0/2025,2000,g 15.5,2.0
# From MPEC 2024-D33
157P/Tritton,e,12.4244,287.4981,155.1778,3.548001,0.1474784,0.55679729,148.4868,06/13.0/2025,2000,g 10.0,4.0
# From MPEC 2022-VC5
157P-B/Tritton,e,12.4253,153.8809,287.2091,3.102744,0.1803372,0.49989391,181.8861,06/13.0/2025,2000,g 15.7,4.0
# From MPC182888
158P/Kowal-LINEAR,e,7.4500,124.4340,229.4091,5.685745,0.0726981,0.11736216,73.4790,06/13.0/2025,2000,g  9.0,4.0
# From MPEC 2024-DC6
159P/LONEOS,e,23.4835,54.9389,4.7270,5.855157,0.0695659,0.38254494,179.1179,06/13.0/2025,2000,g 10.0,4.0
# From MPEC 2022-K19
160P/LINEAR,e,15.5949,333.3489,12.7798,3.779721,0.1341265,0.52500574,271.0452,06/13.0/2025,2000,g 15.5,2.0
# From MPC 75721
161P/Hartley-IRAS,e,95.8181,1.5141,47.0673,7.715728,0.0459874,0.83582551,335.4902,06/13.0/2025,2000,g  8.5,6.0
# From MPEC 2025-A40
162P/SidingSpring,e,27.5535,30.8765,357.2373,3.091844,0.1812916,0.58293832,298.5744,06/13.0/2025,2000,g 12.0,4.0
# From MPEC 2021-S45
163P/NEAT,e,12.7212,102.0725,349.6349,3.761050,0.1351265,0.45348097,288.5294,06/13.0/2025,2000,g 14.5,4.0
# From MPEC 2024-TD8
164P/Christensen,e,16.2774,88.2691,325.9521,3.652032,0.1412219,0.54132374,2.3439,06/13.0/2025,2000,g 11.0,4.0
# From MPC 75721
165P/LINEAR,e,15.9085,0.6755,125.8800,17.81450,0.0131082,0.61923573,119.6778,06/13.0/2025,2000,g 11.5,2.0
# From MPC 75722
166P/NEAT,e,15.3777,64.4390,321.8525,13.84187,0.0191387,0.38286522,160.9093,06/13.0/2025,2000,g  5.5,4.0
# From MPEC 2023-J29
167P/CINEOS,e,19.0751,295.8364,344.4464,16.25149,0.0150440,0.26784688,133.0505,06/13.0/2025,2000,g  9.5,2.0
# From MPEC 2023-J29
168P/Hergenrother,e,21.5949,355.3885,15.1002,3.586767,0.1450940,0.62127038,309.6168,06/13.0/2025,2000,g 15.5,4.0
# From MPC184418
169P/NEAT,e,11.2868,176.0580,218.1218,2.603633,0.2346035,0.76804433,250.8322,06/13.0/2025,2000,g 16.0,2.0
# From MPC184418
170P/Christensen,e,10.1296,142.6375,224.7334,4.194239,0.1147425,0.30526891,90.5683,06/13.0/2025,2000,g 12.0,4.0
# From MPC102102
171P/Spahr,e,21.9508,101.7000,347.0890,3.552343,0.1472081,0.50277722,344.6838,06/13.0/2025,2000,g 13.5,4.0
# From MPC184418
172P/Yeung,e,11.2231,30.8826,208.8947,4.223572,0.1135492,0.20490351,343.8169,06/13.0/2025,2000,g 13.0,4.0
# From MPEC 2023-N01
173P/Mueller,e,16.4935,100.3460,29.2916,5.715613,0.0721290,0.26237153,91.8303,06/13.0/2025,2000,g  7.5,4.0
# From MPC 92985
174P/Echeclus,e,4.3409,173.3392,163.4302,10.75890,0.0279288,0.45483547,103.5337,06/13.0/2025,2000,g  9.4,2.0
# From MPC114608
175P/Hergenrother,e,4.9274,109.8158,74.6755,3.691225,0.1389787,0.37599801,297.8768,06/13.0/2025,2000,g 14.0,4.0
# From MPC 89015
176P/LINEAR,e,0.2312,345.6317,34.4716,3.195338,0.1725555,0.19182777,161.5436,06/13.0/2025,2000,g 15.1,2.0
# From MPEC 2020-L06
177P/Barnard,e,31.0062,271.8620,60.7599,24.50990,0.0081225,0.95422938,55.7361,06/13.0/2025,2000,g 15.0,4.0
# From MPEC 2024-R10
178P/Hug-Bell,e,11.0925,102.7847,297.9620,3.632813,0.1423441,0.48228340,254.8939,06/13.0/2025,2000,g 13.5,4.0
# From MPEC 2024-EF7
179P/Jedicke,e,19.8900,115.5082,297.2143,5.937071,0.0681311,0.30541876,75.5000,06/13.0/2025,2000,g  2.5,8.0
# From MPEC 2024-F34
180P/NEAT,e,16.8618,84.5589,94.6040,3.867797,0.1295712,0.35383119,90.9410,06/13.0/2025,2000,g 11.0,4.0
# From MPC 89012
181P/Shoemaker-Levy,e,17.4743,35.4407,336.2925,3.879153,0.1290027,0.69979450,161.4758,06/13.0/2025,2000,g 11.5,4.0
# From MPEC 2024-UQ8
182P/LONEOS,e,16.2309,72.4546,54.2084,2.948745,0.1946472,0.66393732,219.3914,06/13.0/2025,2000,g 18.0,4.0
# From MPEC 2024-VJ2
183P/Korlevic-Juric,e,18.7272,3.5426,162.6845,4.708273,0.0964743,0.10266605,280.3843,06/13.0/2025,2000,g 12.5,2.0
# From MPEC 2020-W26
184P/Lovas,e,4.5700,173.2676,186.5612,3.800809,0.1330118,0.54980337,225.0176,06/13.0/2025,2000,g 13.5,4.0
# From MPEC 2024-F91
185P/Petriew,e,14.0098,214.1226,181.9202,3.099698,0.1806031,0.69941169,126.6406,06/13.0/2025,2000,g 15.0,4.0
# From MPEC 2022-X67
186P/Garradd,e,28.6558,325.8815,268.4867,4.855926,0.0921077,0.12381865,218.7063,06/13.0/2025,2000,g  7.5,4.0
# From MPEC 2020-SI8
187P/LINEAR,e,13.6674,109.8451,131.6495,4.550352,0.1015399,0.15610929,261.9110,06/13.0/2025,2000,g  9.0,4.0
# From MPEC 2023-J29
188P/LINEAR-Mueller,e,10.5248,358.9138,26.8287,4.365176,0.1080691,0.41670164,327.1181,06/13.0/2025,2000,g 11.5,4.0
# From MPEC 2022-QD9
189P/NEAT,e,20.1202,281.6847,16.1828,2.939878,0.1955285,0.59065281,199.1681,06/13.0/2025,2000,g 19.0,4.0
# From MPC182889
190P/Mueller,e,2.1747,335.4741,50.5515,4.230739,0.1132608,0.52268552,19.3501,06/13.0/2025,2000,g 13.0,4.0
# From MPEC 2024-TD8
191P/McNaught,e,8.8395,98.1789,284.2680,3.640890,0.1418707,0.38513090,219.3132,06/13.0/2025,2000,g 13.0,4.0
# From MPC182889
192P/Shoemaker-Levy,e,24.5798,51.5803,313.0392,6.455361,0.0600929,0.77339806,23.1054,06/13.0/2025,2000,g 15.0,4.0
# From MPEC 2024-R10
193P/LINEAR-NEAT,e,10.6791,335.1860,8.1161,3.579540,0.1455336,0.39260522,202.1778,06/13.0/2025,2000,g 14.0,4.0
# From MPEC 2024-GJ3
194P/LINEAR,e,11.8035,349.5113,128.6181,4.122796,0.1177379,0.56339212,58.2426,06/13.0/2025,2000,g 16.0,4.0
# From MPC184418
195P/Hill,e,36.4166,243.0982,250.6019,6.444257,0.0602483,0.31092689,356.7689,06/13.0/2025,2000,g  8.5,4.0
# From MPEC 2024-GJ3
196P/Tichy,e,19.2949,24.1243,12.1374,3.806267,0.1327258,0.42752662,127.1276,06/13.0/2025,2000,g 13.5,4.0
# From MPEC 2023-UR6
197P/LINEAR,e,25.3184,66.2003,189.9498,2.907884,0.1987644,0.61919146,182.9622,06/13.0/2025,2000,g 16.5,2.0
# From MPEC 2024-VJ2
198P/ODAS,e,1.3400,358.4690,69.0495,3.592041,0.1447745,0.44466180,343.1900,06/13.0/2025,2000,g 12.5,4.0
# From MPEC 2024-Q20
199P/Shoemaker,e,24.9392,92.3438,191.7634,5.873660,0.0692374,0.50440829,46.7801,06/13.0/2025,2000,g 10.0,4.0
# From MPEC 2022-C56
200P/Larsen,e,12.0951,234.8104,134.3849,4.953310,0.0894048,0.33116257,191.8943,06/13.0/2025,2000,g  9.0,4.0
# From MPC 93588
201P/LONEOS,e,5.7371,41.5251,19.8025,3.354648,0.1604108,0.63751027,236.9438,06/13.0/2025,2000,g 14.0,4.0
# From MPC182889
202P/Scotti,e,2.1418,177.3005,274.4961,4.099138,0.1187586,0.25107478,46.5186,06/13.0/2025,2000,g 13.5,4.0
# From MPEC 2025-A40
203P/Korlevic,e,2.9760,290.2217,154.9365,4.668471,0.0977107,0.31638494,187.9475,06/13.0/2025,2000,g 14.5,2.0
# From MPEC 2024-JU4
204P/LINEAR-NEAT,e,6.5979,108.4732,356.7284,3.584198,0.1452500,0.48828696,136.3491,06/13.0/2025,2000,g 14.0,4.0
# From MPEC 2023_O39
205P/Giacobini,e,15.3004,179.6235,154.1542,3.543129,0.1477827,0.56718519,184.3485,06/13.0/2025,2000,g 13.0,4.0
# From MPC 75725
206P/Barnard-Boattini,e,33.6174,202.3416,189.5766,3.491447,0.1510761,0.55113490,235.8166,06/13.0/2025,2000,g 19.0,4.0
# From MPEC 2024-NE4
207P/NEAT,e,10.1986,198.1384,273.0280,3.886143,0.1286548,0.75852478,64.0869,06/13.0/2025,2000,g 16.0,4.0
# From MPC182889
208P/McMillan,e,4.4112,36.3323,310.7694,4.041046,0.1213287,0.37411874,35.5219,06/13.0/2025,2000,g 12.5,4.0
# From MPEC 2024-TD8
209P/LINEAR,e,21.2828,62.7645,152.4814,2.957841,0.1937500,0.67402961,64.6171,06/13.0/2025,2000,g 17.0,2.0
# From MPC105242
210P/Christensen,e,10.2819,93.8249,345.9169,3.160726,0.1753977,0.83407184,331.4594,06/13.0/2025,2000,g 13.5,4.0
# From MPEC 2024-JU4
211P/Hill,e,18.9247,117.1008,4.3504,3.548903,0.1474222,0.34448342,144.7447,06/13.0/2025,2000,g 12.5,4.0
# From MPEC 2024-GJ3
212P/NEAT,e,22.1491,97.9719,14.0602,3.902997,0.1278223,0.58675446,52.8993,06/13.0/2025,2000,g 17.0,2.0
# From MPC184418
213P/VanNess,e,10.4258,310.9224,6.4961,3.356855,0.1602527,0.40969004,92.5623,06/13.0/2025,2000,g 10.5,4.0
# From MPEC 2025-GB9
213P-B/Van Ness,e,10.4252,310.9188,6.5153,3.356736,0.1602612,0.40956334,92.5883,06/13.0/2025,2000,g 17.0,4.0
# From MPC 76570
213P-C/Van Ness,e,10.3506,5.2562,312.0968,3.355105,0.1603780,0.40956625,92.7934,06/13.0/2025,2000,g 17.5,4.0
# From MPC 92986
214P/LINEAR,e,15.1927,348.2119,190.1203,3.616500,0.1433083,0.48626759,141.9655,06/13.0/2025,2000,g 13.0,4.0
# From MPC184418
215P/NEAT,e,10.5763,56.6780,262.2498,4.335814,0.1091687,0.16493384,222.4144,06/13.0/2025,2000,g 11.0,4.0
# From MPEC 2024-N80
216P/LINEAR,e,9.0616,359.7814,151.7698,3.860280,0.1299499,0.44901182,67.9648,06/13.0/2025,2000,g 13.0,4.0
# From MPC184418
217P/LINEAR,e,12.8655,125.3714,247.0364,3.944315,0.1258191,0.68907804,2.3975,06/13.0/2025,2000,g 12.0,4.0
# From MPEC 2022-K19
218P/LINEAR,e,2.7264,174.6809,61.4085,3.061534,0.1839905,0.63092560,311.4511,06/13.0/2025,2000,g 16.0,4.0
# From MPC182889
219P/LINEAR,e,11.5163,230.8969,107.9701,3.656971,0.1409359,0.35579857,68.1950,06/13.0/2025,2000,g 11.0,4.0
# From MPEC 2024-A43
220P/McNaught,e,8.1208,150.0913,180.5835,3.120270,0.1788199,0.50039407,294.5262,06/13.0/2025,2000,g 15.0,4.0
# From MPEC 2022-UY9
221P/LINEAR,e,10.8895,226.8593,41.5996,3.386685,0.1581401,0.52152230,197.9724,06/13.0/2025,2000,g 14.5,4.0
# From MPC 92277
222P/LINEAR,e,5.0974,6.7542,346.2747,2.896256,0.1999625,0.71480674,79.2074,06/13.0/2025,2000,g 20.0,4.0
# From MPEC 2023-A50
223P/Skiff,e,27.0059,346.7053,37.9823,4.158269,0.1162346,0.41625053,270.2945,06/13.0/2025,2000,g 12.0,4.0
# From MPEC 2024-L77
